NORAD_CAT_ID,OBJECT_NAME,OBJECT_TYPE,EPOCH,MEAN_MOTION,ECCENTRICITY,INCLINATION,RA_OF_ASC_NODE,ARG_OF_PERICENTER,MEAN_ANOMALY,BSTAR,MEAN_MOTION_DOT,MEAN_MOTION_DDOT,TLE_LINE0,TLE_LINE1,TLE_LINE2,SEMIMAJOR_AXIS,PERIOD,APOGEE,PERIGEE,DECAYED
54182.0,STARLINK-5231,PAYLOAD,2024-03-09 06:09:11,15.08851881,0.0001585,53.2188,12.7938,93.2624,266.8549,0.00026497,3.933e-05,0.0,0 STARLINK-5231,1 54182U 22141AB  24069.25638838  .00003933  00000-0  26497-3 0  9993,2 54182  53.2188  12.7938 0001585  93.2624 266.8549 15.08851881 76013,6917.844,95.437,540.806,538.613,0.0
54182.0,STARLINK-5231,PAYLOAD,2024-03-10 02:49:13,15.08842063,0.0001539,53.2196,8.9292,83.8813,276.2354,8.6788e-05,1.094e-05,0.0,0 STARLINK-5231,1 54182U 22141AB  24070.11751188  .00001094  00000-0  86788-4 0  9990,2 54182  53.2196   8.9292 0001539  83.8813 276.2354 15.08842063 76376,6917.874,95.437,540.804,538.674,0.0
54182.0,STARLINK-5231,PAYLOAD,2024-03-10 12:21:31,15.08839224,0.0001437,53.2191,7.1467,92.975,267.1407,5.8635e-05,6.45e-06,0.0,0 STARLINK-5231,1 54182U 22141AB  24070.51495301  .00000645  00000-0  58635-4 0  9997,2 54182  53.2191   7.1467 0001437  92.9750 267.1407 15.08839224 76209,6917.883,95.438,540.742,538.754,0.0
54182.0,STARLINK-5231,PAYLOAD,2024-03-10 20:18:27,15.08837034,0.0001504,53.2195,5.6609,92.255,267.8614,2.762e-05,1.52e-06,0.0,0 STARLINK-5231,1 54182U 22141AB  24070.84615557  .00000152  00000-0  27620-4 0  9993,2 54182  53.2195   5.6609 0001504  92.2550 267.8614 15.08837034 76484,6917.889,95.438,540.795,538.714,0.0
54182.0,STARLINK-5231,PAYLOAD,2024-03-11 12:12:18,15.08839515,0.0001396,53.2199,2.6854,90.1559,269.9593,6.9563e-05,8.19e-06,0.0,0 STARLINK-5231,1 54182U 22141AB  24071.50855262  .00000819  00000-0  69563-4 0  9998,2 54182  53.2199   2.6854 0001396  90.1559 269.9593 15.08839515 76353,6917.882,95.438,540.713,538.781,0.0
54182.0,STARLINK-5231,PAYLOAD,2024-03-12 04:06:10,15.08836264,0.000158,53.2201,359.7145,97.929,262.1881,-6.6354e-05,-1.344e-05,0.0,0 STARLINK-5231,1 54182U 22141AB  24072.17095852 -.00001344  00000-0 -66354-4 0  9994,2 54182  53.2201 359.7145 0001580  97.9290 262.1881 15.08836264 76687,6917.892,95.438,540.85,538.664,0.0
54182.0,STARLINK-5231,PAYLOAD,2024-03-12 12:03:06,15.08845561,0.0001671,53.2209,358.225,84.5816,275.5367,4.5049e-07,-2.81e-06,0.0,0 STARLINK-5231,1 54182U 22141AB  24072.50215748 -.00000281  00000-0  45049-6 0  9997,2 54182  53.2209 358.2250 0001671  84.5816 275.5367 15.08845561 76736,6917.863,95.437,540.884,538.572,0.0
54182.0,STARLINK-5231,PAYLOAD,2024-03-13 11:53:53,15.0884188,0.0001201,53.2192,353.762,90.9602,269.1528,6.4819e-05,7.44e-06,0.0,0 STARLINK-5231,1 54182U 22141AB  24073.49575502  .00000744  00000-0  64819-4 0  9990,2 54182  53.2192 353.7620 0001201  90.9602 269.1528 15.08841880 76650,6917.875,95.437,540.57,538.909,0.0
54182.0,STARLINK-5231,PAYLOAD,2024-03-14 02:12:21,15.088424,0.0001473,53.219,351.0878,88.4858,271.6303,8.614e-05,1.083e-05,0.0,0 STARLINK-5231,1 54182U 22141AB  24074.09192003  .00001083  00000-0  86140-4 0  9996,2 54182  53.2190 351.0878 0001473  88.4858 271.6303 15.08842400 76973,6917.873,95.437,540.757,538.719,0.0
54182.0,STARLINK-5231,PAYLOAD,2024-03-15 03:38:31,15.08848203,0.00015,53.2195,346.3278,93.8166,266.2998,4.0161e-05,3.51e-06,0.0,0 STARLINK-5231,1 54182U 22141AB  24075.15175671  .00000351  00000-0  40161-4 0  9996,2 54182  53.2195 346.3278 0001500  93.8166 266.2998 15.08848203 77138,6917.855,95.437,540.758,538.683,0.0
54182.0,STARLINK-5231,PAYLOAD,2024-03-15 22:43:09,15.08848309,0.0001797,53.2202,342.758,86.5493,273.5704,4.5408e-05,4.35e-06,0.0,0 STARLINK-5231,1 54182U 22141AB  24075.94663629  .00000435  00000-0  45408-4 0  9990,2 54182  53.2202 342.7580 0001797  86.5493 273.5704 15.08848309 77024,6917.855,95.437,540.963,538.477,0.0
54182.0,STARLINK-5231,PAYLOAD,2024-03-16 03:29:18,15.08844527,0.0001803,53.2202,341.8655,83.6106,276.5092,0.00010579,1.396e-05,0.0,0 STARLINK-5231,1 54182U 22141AB  24076.14535769  .00001396  00000-0  10579-3 0  9993,2 54182  53.2202 341.8655 0001803  83.6106 276.5092 15.08844527 77283,6917.867,95.437,540.979,538.484,0.0
54182.0,STARLINK-5231,PAYLOAD,2024-03-16 20:58:33,15.0883934,0.0001578,53.2187,338.5934,106.586,253.5306,4.8428e-05,4.83e-06,0.0,0 STARLINK-5231,1 54182U 22141AB  24076.87400071  .00000483  00000-0  48428-4 0  9991,2 54182  53.2187 338.5934 0001578 106.5860 253.5306 15.08839340 77391,6917.882,95.438,540.839,538.656,0.0
54182.0,STARLINK-5231,PAYLOAD,2024-03-16 22:33:56,15.08839604,0.0001557,53.2186,338.296,104.2297,255.8868,4.6035e-05,4.45e-06,0.0,0 STARLINK-5231,1 54182U 22141AB  24076.94024052  .00000445  00000-0  46035-4 0  9990,2 54182  53.2186 338.2960 0001557 104.2297 255.8868 15.08839604 77179,6917.882,95.438,540.824,538.669,0.0
54182.0,STARLINK-5231,PAYLOAD,2024-03-17 03:20:06,15.08837919,0.0001583,53.2189,337.4053,102.8349,257.2821,1.7395e-05,-1.1e-07,0.0,0 STARLINK-5231,1 54182U 22141AB  24077.13896211 -.00000011  00000-0  17395-4 0  9993,2 54182  53.2189 337.4053 0001583 102.8349 257.2821 15.08837919 77203,6917.887,95.438,540.847,538.657,0.0
54182.0,STARLINK-5231,PAYLOAD,2024-03-17 22:24:43,15.08840151,0.0001574,53.2183,333.8371,109.1522,250.964,4.5055e-05,4.29e-06,0.0,0 STARLINK-5231,1 54182U 22141AB  24077.93383929  .00000429  00000-0  45055-4 0  9994,2 54182  53.2183 333.8371 0001574 109.1522 250.9640 15.08840151 77327,6917.88,95.438,540.834,538.656,0.0
54182.0,STARLINK-5231,PAYLOAD,2024-03-18 03:10:53,15.08841093,0.0001569,53.2186,332.9452,106.8013,253.3152,4.4896e-05,4.27e-06,0.0,0 STARLINK-5231,1 54182U 22141AB  24078.13255859  .00000427  00000-0  44896-4 0  9997,2 54182  53.2186 332.9452 0001569 106.8013 253.3152 15.08841093 77582,6917.877,95.437,540.827,538.657,0.0
54182.0,STARLINK-5231,PAYLOAD,2024-03-18 20:40:08,15.08833428,0.0001536,53.2185,329.6745,107.3946,252.7214,3.6074e-05,2.86e-06,0.0,0 STARLINK-5231,1 54182U 22141AB  24078.86120545  .00000286  00000-0  36074-4 0  9992,2 54182  53.2185 329.6745 0001536 107.3946 252.7214 15.08833428 77691,6917.9,95.438,540.828,538.703,0.0
54182.0,STARLINK-5231,PAYLOAD,2024-03-18 22:15:31,15.08833077,0.0001527,53.2186,329.3772,107.0482,253.0678,2.9839e-05,1.87e-06,0.0,0 STARLINK-5231,1 54182U 22141AB  24078.92744607  .00000187  00000-0  29839-4 0  9991,2 54182  53.2186 329.3772 0001527 107.0482 253.0678 15.08833077 77475,6917.902,95.438,540.823,538.71,0.0
54182.0,STARLINK-5231,PAYLOAD,2024-03-18 23:50:54,15.08834596,0.0001413,53.2188,329.0798,101.84,258.275,1.5885e-05,-3.5e-07,0.0,0 STARLINK-5231,1 54182U 22141AB  24078.99368597 -.00000035  00000-0  15885-4 0  9997,2 54182  53.2188 329.0798 0001413 101.8400 258.2750 15.08834596 77484,6917.897,95.438,540.739,538.784,0.0
54182.0,STARLINK-5231,PAYLOAD,2024-03-19 22:06:17,15.08851615,0.0001405,53.2195,324.924,99.1628,260.9523,0.00010392,1.367e-05,0.0,0 STARLINK-5231,1 54182U 22141AB  24079.92103598  .00001367  00000-0  10392-3 0  9994,2 54182  53.2195 324.9240 0001405  99.1628 260.9523 15.08851615 77850,6917.845,95.437,540.682,538.738,0.0
54182.0,STARLINK-5231,PAYLOAD,2024-03-20 01:17:03,15.08857901,0.000147,53.2189,324.3274,110.7481,249.3669,0.000159,2.245e-05,0.0,0 STARLINK-5231,1 54182U 22141AB  24080.05351014  .00002245  00000-0  15900-3 0  9994,2 54182  53.2189 324.3274 0001470 110.7481 249.3669 15.08857901 77871,6917.826,95.436,540.708,538.674,0.0
54182.0,STARLINK-5231,PAYLOAD,2024-03-20 21:57:05,15.08838123,0.0001751,53.2177,320.4599,137.3215,222.7913,6.6758e-06,-1.82e-06,0.0,0 STARLINK-5231,1 54182U 22141AB  24080.91464216 -.00000182  00000-0  66758-5 0  9996,2 54182  53.2177 320.4599 0001751 137.3215 222.7913 15.08838123 77778,6917.886,95.438,540.962,538.54,0.0
54182.0,STARLINK-5231,PAYLOAD,2024-03-21 01:07:51,15.08838424,0.0001388,53.2182,319.8674,81.1794,278.9356,0.00010086,1.318e-05,0.0,0 STARLINK-5231,1 54182U 22141AB  24081.04712710  .00001318  00000-0  10086-3 0  9998,2 54182  53.2182 319.8674 0001388  81.1794 278.9356 15.08838424 78021,6917.885,95.438,540.71,538.79,0.0
54182.0,STARLINK-5231,PAYLOAD,2024-03-21 09:04:47,15.08839541,0.000134,53.2177,318.3807,82.4159,277.6985,0.00010668,1.41e-05,0.0,0 STARLINK-5231,1 54182U 22141AB  24081.37832755  .00001410  00000-0  10668-3 0  9995,2 54182  53.2177 318.3807 0001340  82.4159 277.6985 15.08839541 77848,6917.882,95.438,540.674,538.82,0.0
54182.0,STARLINK-5231,PAYLOAD,2024-03-21 21:47:52,15.08849903,0.0001211,53.2166,316.0002,83.9204,276.1926,0.00043821,6.695e-05,0.0,0 STARLINK-5231,1 54182U 22141AB  24081.90824386  .00006695  00000-0  43821-3 0  9992,2 54182  53.2166 316.0002 0001211  83.9204 276.1926 15.08849903 77923,6917.85,95.437,540.553,538.877,0.0
54182.0,STARLINK-5231,PAYLOAD,2024-03-22 00:58:38,15.08861756,0.0001276,53.217,315.4025,95.825,264.2887,0.00074393,0.00011579,0.0,0 STARLINK-5231,1 54182U 22141AB  24082.04071981  .00011579  00000-0  74393-3 0  9998,2 54182  53.2170 315.4025 0001276  95.8250 264.2887 15.08861756 78172,6917.814,95.436,540.562,538.796,0.0
54182.0,STARLINK-5231,PAYLOAD,2024-03-22 20:03:16,15.08845555,0.000141,53.2166,311.8367,73.8904,286.2243,0.00029297,4.378e-05,0.0,0 STARLINK-5231,1 54182U 22141AB  24082.83560597  .00004378  00000-0  29297-3 0  9993,2 54182  53.2166 311.8367 0001410  73.8904 286.2243 15.08845555 78290,6917.863,95.437,540.704,538.753,0.0
54182.0,STARLINK-5231,PAYLOAD,2024-03-22 21:38:39,15.08820063,0.0001543,53.217,311.5358,88.0909,272.0259,-0.00076423,-0.00012423,0.0,0 STARLINK-5231,1 54182U 22141AB  24082.90184527 -.00012423  00000-0 -76423-3 0  9991,2 54182  53.2170 311.5358 0001543  88.0909 272.0259 15.08820063 78075,6917.941,95.439,540.874,538.739,0.0
54182.0,STARLINK-5231,PAYLOAD,2024-03-23 00:49:25,15.08812142,0.0001675,53.2171,310.942,89.8366,270.2818,-0.0007034,-0.00011457,0.0,0 STARLINK-5231,1 54182U 22141AB  24083.03432843 -.00011457  00000-0 -70340-3 0  9991,2 54182  53.2171 310.9420 0001675  89.8366 270.2818 15.08812142 78329,6917.966,95.439,540.989,538.672,0.0
